FLOCK 4G-30             
1 62679U 25009BY  26068.70871344  .00013147  00000+0  49475-3 0  9999
2 62679  97.3969 150.6012 0003795 342.4152  17.6955 15.27244548121341
STARLINK-34053          
1 63837U 25093B   26068.37935373  .00023987  00000+0  87850-3 0  9997
2 63837  42.9993  79.7427 0001159 279.8143  80.2578 15.27575177 47863
